LINGQIAO VIDEO A        
1 40959U 15057B   26176.82757591  .00000970  00000+0  14286-3 0  9990
2 40959  97.6623 171.2031 0015233 239.4285 120.5424 14.77403789576684
LINGQIAO VIDEO B        
1 40960U 15057C   26176.87135146  .00000231  00000+0  39194-4 0  9999
2 40960  97.6589 172.4059 0015416 239.2959 120.6734 14.77507159576736
JILIN-1                 
1 40961U 15057D   26176.81331684  .00000758  00000+0  11120-3 0  9991
2 40961  97.6508 175.7516 0015620 232.0812 127.8988 14.78172884576888
FOX-1A (AO-85)          
1 40967U 15058D   26176.60265426  .00002302  00000+0  21247-3 0  9993
2 40967  64.7749 252.8304 0130949  53.3196 307.9866 14.91002790114820
SINOD-D 1               
1 40968U 15058E   26176.56856403  .00003279  00000+0  26676-3 0  9995
2 40968  64.7740 232.6646 0119610  49.7671 311.3833 14.95949961117916
ELEKTRO-L 2             
1 41105U 15074A   26175.45272256 -.00000115  00000+0  00000+0 0  9998
2 41105   6.7126  70.4366 0000705 278.7793  71.8306  1.00271170 38573
DAMPE                   
1 41173U 15078A   26176.79692976  .00001392  00000+0  49275-4 0  9999
2 41173  97.4562 182.3062 0013458  50.9187 309.3249 15.30805649585867
ORBCOMM FM110           
1 41182U 15081D   26176.80159219  .00000598  00000+0  16260-3 0  9997
2 41182  47.0031 320.7115 0002582 127.6530 232.4591 14.58892033558886
ORBCOMM FM112           
1 41184U 15081F   26176.49784057  .00000383  00000+0  11714-3 0  9999
2 41184  46.9976 230.9484 0004073 250.8293 109.2152 14.58913169560169
ORBCOMM FM113           
1 41185U 15081G   26175.85835780  .00000236  00000+0  86127-4 0  9997
2 41185  46.9996 234.3526 0002552 251.1934 108.8675 14.58864475560051
ORBCOMM FM108           
1 41187U 15081J   26176.64250567  .00000611  00000+0  16536-3 0  9994
2 41187  47.0034 142.2199 0003159 253.4258 106.6281 14.58883724561316
ORBCOMM FM117           
1 41188U 15081K   26176.60807448  .00000274  00000+0  94183-4 0  9997
2 41188  46.9999 141.0141 0003651 256.7948 103.2531 14.58870589561358
ORBCOMM FM116           
1 41189U 15081L   26176.51992163  .00000412  00000+0  12318-3 0  9990
2 41189  47.0011 231.2222 0000645 150.1988 209.8935 14.58892527560153
HORYU-4                 
1 41340U 16012D   26176.85607730  .01047123  58042-3  13388-2 0  9995
2 41340  30.9835  14.9564 0008742 324.3130  35.6949 16.06185976572209
ZIYUAN 3-02 (ZY 3-02)   
1 41556U 16033A   26176.87234563  .00006001  00000+0  27114-3 0  9998
2 41556  97.3838 252.4796 0012445 257.2436 102.7409 15.21256334559308
CARTOSAT-2C             
1 41599U 16040A   26176.82060670  .00005382  00000+0  25820-3 0  9997
2 41599  97.4485 236.6797 0010485 104.7973 255.4424 15.19254959555029
LAPAN-A3                
1 41603U 16040E   26176.80659527  .00004153  00000+0  13183-3 0  9990
2 41603  97.1488 172.6689 0009787 355.9027   4.2135 15.33156778556135
GAOFEN-3                
1 41727U 16049A   26176.89498373 -.00000115  00000+0 -21804-4 0  9991
2 41727  98.4014 184.5493 0001584  96.5932 263.5438 14.42215736519905
CAS-2T & KS-1Q          
1 41847U 16066G   26176.69031690  .00001601  00000+0  23081-3 0  9993
2 41847  98.3821 252.3295 0342905 103.7696 260.1902 14.44720464506029
YUNHAI-1 01             
1 41857U 16068A   26176.89756343  .00000206  00000+0  92371-4 0  9996
2 41857  98.5847 187.8225 0005669  34.7669 325.3884 14.32428063503073
RESOURCESAT-2A          
1 41877U 16074A   26176.86855440 -.00000054  00000+0 -46082-5 0  9992
2 41877  98.7526 250.3023 0003225  67.2448 292.9070 14.21618520495539
TANSAT                  
1 41898U 16081A   26176.88396340  .00000235  00000+0  59485-4 0  9993
2 41898  98.5366 177.3986 0019176 283.8785  76.0280 14.59956748505893
JILIN-1 03              
1 41914U 17002B   26176.85325852  .00014555  00000+0  34547-3 0  9994
2 41914  97.1946 183.8159 0007625 130.0680 230.1237 15.41773604523196
CARTOSAT-2D             
1 41948U 17008A   26176.85256745  .00003943  00000+0  19021-3 0  9990
2 41948  97.4105 235.9971 0004491 198.7115 161.3955 15.19264302518894
CARTOSAT-2E             
1 42767U 17036C   26176.87022491  .00004083  00000+0  19710-3 0  9993
2 42767  97.4274 236.5295 0002161 280.2486  79.8505 15.19226580499468
