OBJECT_NAME,OBJECT_ID,EPOCH,MEAN_MOTION,ECCENTRICITY,INCLINATION,RA_OF_ASC_NODE,ARG_OF_PERICENTER,MEAN_ANOMALY,EPHEMERIS_TYPE,CLASSIFICATION_TYPE,NORAD_CAT_ID,ELEMENT_SET_NO,REV_AT_EPOCH,BSTAR,MEAN_MOTION_DOT,MEAN_MOTION_DDOT
LINGQIAO VIDEO A,2015-057B,2026-06-25T19:51:42.558624,14.77403789,.0015233,97.6623,171.2031,239.4285,120.5424,0,U,40959,999,57668,.14286E-3,.97E-5,0
LINGQIAO VIDEO B,2015-057C,2026-06-25T20:54:44.766144,14.77507159,.0015416,97.6589,172.4059,239.2959,120.6734,0,U,40960,999,57673,.39194E-4,.231E-5,0
JILIN-1,2015-057D,2026-06-25T19:31:10.574976,14.78172884,.001562,97.6508,175.7516,232.0812,127.8988,0,U,40961,999,57688,.1112E-3,.758E-5,0
FOX-1A (AO-85),2015-058D,2026-06-25T14:27:49.328064,14.91002790,.0130949,64.7749,252.8304,53.3196,307.9866,0,U,40967,999,11482,.21247E-3,.2302E-4,0
SINOD-D 1,2015-058E,2026-06-25T13:38:43.932192,14.95949961,.011961,64.7740,232.6646,49.7671,311.3833,0,U,40968,999,11791,.26676E-3,.3279E-4,0
ELEKTRO-L 2,2015-074A,2026-06-24T10:51:55.229184,1.00271170,.0000705,6.7126,70.4366,278.7793,71.8306,0,U,41105,999,3857,0,-.115E-5,0
DAMPE,2015-078A,2026-06-25T19:07:34.731264,15.30805649,.0013458,97.4562,182.3062,50.9187,309.3249,0,U,41173,999,58586,.49275E-4,.1392E-4,0
ORBCOMM FM110,2015-081D,2026-06-25T19:14:17.565216,14.58892033,.0002582,47.0031,320.7115,127.6530,232.4591,0,U,41182,999,55888,.1626E-3,.598E-5,0
ORBCOMM FM112,2015-081F,2026-06-25T11:56:53.425248,14.58913169,.0004073,46.9976,230.9484,250.8293,109.2152,0,U,41184,999,56016,.11714E-3,.383E-5,0
ORBCOMM FM113,2015-081G,2026-06-24T20:36:02.113920,14.58864475,.0002552,46.9996,234.3526,251.1934,108.8675,0,U,41185,999,56005,.86126666E-4,.236E-5,0
ORBCOMM FM108,2015-081J,2026-06-25T15:25:12.489888,14.58883724,.0003159,47.0034,142.2199,253.4258,106.6281,0,U,41187,999,56131,.16536E-3,.611E-5,0
ORBCOMM FM117,2015-081K,2026-06-25T14:35:37.635072,14.58870589,.0003651,46.9999,141.0141,256.7948,103.2531,0,U,41188,999,56135,.94183E-4,.274E-5,0
ORBCOMM FM116,2015-081L,2026-06-25T12:28:41.228832,14.58892527,.0000645,47.0011,231.2222,150.1988,209.8935,0,U,41189,999,56015,.12318E-3,.412E-5,0
HORYU-4,2016-012D,2026-06-25T20:32:45.078720,16.06185976,.0008742,30.9835,14.9564,324.3130,35.6949,0,U,41340,999,57220,.13388E-2,.1047123E-1,.58042E-3
ZIYUAN 3-02 (ZY 3-02),2016-033A,2026-06-25T20:56:10.662432,15.21256334,.0012445,97.3838,252.4796,257.2436,102.7409,0,U,41556,999,55930,.27114E-3,.6001E-4,0
CARTOSAT-2C,2016-040A,2026-06-25T19:41:40.418880,15.19254959,.0010485,97.4485,236.6797,104.7973,255.4424,0,U,41599,999,55502,.2582E-3,.5382E-4,0
LAPAN-A3,2016-040E,2026-06-25T19:21:29.831328,15.33156778,.0009787,97.1488,172.6689,355.9027,4.2135,0,U,41603,999,55613,.13183E-3,.4153E-4,0
GAOFEN-3,2016-049A,2026-06-25T21:28:46.594272,14.42215736,.0001584,98.4014,184.5493,96.5932,263.5438,0,U,41727,999,51990,-.21804E-4,-.115E-5,0
CAS-2T & KS-1Q,2016-066G,2026-06-25T16:34:03.380160,14.44720464,.0342905,98.3821,252.3295,103.7696,260.1902,0,U,41847,999,50602,.23081E-3,.1601E-4,0
YUNHAI-1 01,2016-068A,2026-06-25T21:32:29.480352,14.32428063,.0005669,98.5847,187.8225,34.7669,325.3884,0,U,41857,999,50307,.92371E-4,.206E-5,0
RESOURCESAT-2A,2016-074A,2026-06-25T20:50:43.100160,14.21618520,.0003225,98.7526,250.3023,67.2448,292.9070,0,U,41877,999,49553,-.46082E-5,-.54E-6,0
TANSAT,2016-081A,2026-06-25T21:12:54.437760,14.59956748,.0019176,98.5366,177.3986,283.8785,76.0280,0,U,41898,999,50589,.59485E-4,.235E-5,0
JILIN-1 03,2017-002B,2026-06-25T20:28:41.536128,15.41773604,.0007625,97.1946,183.8159,130.0680,230.1237,0,U,41914,999,52319,.34547E-3,.14555E-3,0
CARTOSAT-2D,2017-008A,2026-06-25T20:27:41.827680,15.19264302,.0004491,97.4105,235.9971,198.7115,161.3955,0,U,41948,999,51889,.19021E-3,.3943E-4,0
CARTOSAT-2E,2017-036C,2026-06-25T20:53:07.432224,15.19226580,.0002161,97.4274,236.5295,280.2486,79.8505,0,U,42767,999,49946,.1971E-3,.4083E-4,0
